COSMOS 2251 DEB         
1 33928U 93036EH  17345.72030703  .00000143  00000-0  50302-4 0  9990
2 33928  73.9259 124.8072 0065684 334.9388  24.8582 14.42767757464556
